[
    {
        "Altitude(m)": 604983.0530053793,
        "Argument of Periapsis(deg)": 0.0,
        "Eccentricity": 0.0,
        "Inclination(deg)": 60.0,
        "Latitude(deg)": -0.09267812982593446,
        "Longitude(deg)": -14.916083460380486,
        "Mean Anomaly(deg)": -180.0,
        "RAAN(deg)": 265.0,
        "Satellite Name": "Test1 1177",
        "Satellite Number": 1177,
        "Semi-Major Axis(m)": 6980739.136638005,
        "Time(s)": 0
    },
    {
        "Altitude(m)": 605055.3326732086,
        "Argument of Periapsis(deg)": 0.00010418945913296404,
        "Eccentricity": 0.0,
        "Inclination(deg)": 60.0,
        "Latitude(deg)": -0.6330875974224449,
        "Longitude(deg)": -14.647957738780745,
        "Mean Anomaly(deg)": -179.37989385453815,
        "RAAN(deg)": 264.99957995086027,
        "Satellite Name": "Test1 1177",
        "Satellite Number": 1177,
        "Semi-Major Axis(m)": 6980739.136638005,
        "Time(s)": 10
    }
]